KINEIS-5E               
1 62083U 24219C   26063.17778824  .00000423  00000+0  74606-4 0  9993
2 62083  97.9650 224.9180 0002753 138.7300 221.4116 14.72321280 68317
KINEIS-5A               
1 62084U 24219D   26063.14137501  .00001194  00000+0  19721-3 0  9994
2 62084  97.9787 224.9797 0001399 228.7384 131.3703 14.72177329 68314
KINEIS-5B               
1 62085U 24219E   26063.19493858  .00002757  00000+0  38875-3 0  9997
2 62085  97.9932 227.7202 0001126 213.1225 146.9915 14.78047399 68494
KINEIS-2C               
1 62929U 25028B   26063.15433360  .00001691  00000+0  27538-3 0  9991
2 62929  98.0287 118.3902 0001361  39.2836 320.8470 14.72297963 57152
KINEIS-2D               
1 62930U 25028C   26063.14363906  .00002620  00000+0  39398-3 0  9990
2 62930  97.9420 117.5755 0003717 160.7586 199.3764 14.75317949 57220
KINEIS-2E               
1 62931U 25028D   26063.14111541  .00002037  00000+0  29822-3 0  9990
2 62931  97.9092 116.9695 0001827 115.2653 244.8747 14.76694659 57271
KINEIS-2A               
1 62932U 25028E   26063.11399618  .00001635  00000+0  26799-3 0  9994
2 62932  98.0697 118.6574 0003326 212.8928 147.2072 14.72083230 57141
KINEIS-2B               
1 62934U 25028G   26063.13844072  .00001840  00000+0  29356-3 0  9997
2 62934  97.9803 117.8639 0004819 121.5955 238.5724 14.73096261 57199
KINEIS-4E               
1 63300U 25056A   26063.18154163  .00003586  00000+0  57454-3 0  9995
2 63300  97.9934 189.5803 0000600 192.8034 167.3159 14.72333733 51679
KINEIS-4C               
1 63301U 25056B   26063.19397444  .00003807  00000+0  60887-3 0  9998
2 63301  97.9993 189.7560 0000706  47.5026 312.6241 14.72375204 51688
KINEIS-4D               
1 63302U 25056C   26063.19900079  .00003789  00000+0  60644-3 0  9993
2 63302  97.9975 189.7394 0000517 326.5391  33.5784 14.72345957 51682
KINEIS-4A               
1 63303U 25056D   26062.62048550 -.00000963  00000+0 -14474-3 0  9991
2 63303  97.9941 189.0973 0001610 271.1978  88.9045 14.72278900 51590
KINEIS-4B               
1 63304U 25056E   26062.80743462  .00001461  00000+0  23900-3 0  9992
2 63304  97.9947 189.3269 0002028 211.1315 148.9773 14.72295278 51616
