[{"OBJECT_NAME":"KINEIS-5E","OBJECT_ID":"2024-219C","EPOCH":"2026-03-04T04:16:00.903936","MEAN_MOTION":14.7232128,"ECCENTRICITY":0.0002753,"INCLINATION":97.965,"RA_OF_ASC_NODE":224.918,"ARG_OF_PERICENTER":138.73,"MEAN_ANOMALY":221.4116,"EPHEMERIS_TYPE":0,"CLASSIFICATION_TYPE":"U","NORAD_CAT_ID":62083,"ELEMENT_SET_NO":999,"REV_AT_EPOCH":6831,"BSTAR":7.4606e-5,"MEAN_MOTION_DOT":4.23e-6,"MEAN_MOTION_DDOT":0},{"OBJECT_NAME":"KINEIS-5A","OBJECT_ID":"2024-219D","EPOCH":"2026-03-04T03:23:34.800864","MEAN_MOTION":14.72177329,"ECCENTRICITY":0.0001399,"INCLINATION":97.9787,"RA_OF_ASC_NODE":224.9797,"ARG_OF_PERICENTER":228.7384,"MEAN_ANOMALY":131.3703,"EPHEMERIS_TYPE":0,"CLASSIFICATION_TYPE":"U","NORAD_CAT_ID":62084,"ELEMENT_SET_NO":999,"REV_AT_EPOCH":6831,"BSTAR":0.00019721,"MEAN_MOTION_DOT":1.194e-5,"MEAN_MOTION_DDOT":0},{"OBJECT_NAME":"KINEIS-5B","OBJECT_ID":"2024-219E","EPOCH":"2026-03-04T04:40:42.693312","MEAN_MOTION":14.78047399,"ECCENTRICITY":0.0001126,"INCLINATION":97.9932,"RA_OF_ASC_NODE":227.7202,"ARG_OF_PERICENTER":213.1225,"MEAN_ANOMALY":146.9915,"EPHEMERIS_TYPE":0,"CLASSIFICATION_TYPE":"U","NORAD_CAT_ID":62085,"ELEMENT_SET_NO":999,"REV_AT_EPOCH":6849,"BSTAR":0.00038875,"MEAN_MOTION_DOT":2.757e-5,"MEAN_MOTION_DDOT":0},{"OBJECT_NAME":"KINEIS-2C","OBJECT_ID":"2025-028B","EPOCH":"2026-03-04T03:42:14.423040","MEAN_MOTION":14.72297963,"ECCENTRICITY":0.0001361,"INCLINATION":98.0287,"RA_OF_ASC_NODE":118.3902,"ARG_OF_PERICENTER":39.2836,"MEAN_ANOMALY":320.847,"EPHEMERIS_TYPE":0,"CLASSIFICATION_TYPE":"U","NORAD_CAT_ID":62929,"ELEMENT_SET_NO":999,"REV_AT_EPOCH":5715,"BSTAR":0.00027538,"MEAN_MOTION_DOT":1.691e-5,"MEAN_MOTION_DDOT":0},{"OBJECT_NAME":"KINEIS-2D","OBJECT_ID":"2025-028C","EPOCH":"2026-03-04T03:26:50.414784","MEAN_MOTION":14.75317949,"ECCENTRICITY":0.0003717,"INCLINATION":97.942,"RA_OF_ASC_NODE":117.5755,"ARG_OF_PERICENTER":160.7586,"MEAN_ANOMALY":199.3764,"EPHEMERIS_TYPE":0,"CLASSIFICATION_TYPE":"U","NORAD_CAT_ID":62930,"ELEMENT_SET_NO":999,"REV_AT_EPOCH":5722,"BSTAR":0.00039398,"MEAN_MOTION_DOT":2.62e-5,"MEAN_MOTION_DDOT":0},{"OBJECT_NAME":"KINEIS-2E","OBJECT_ID":"2025-028D","EPOCH":"2026-03-04T03:23:12.371424","MEAN_MOTION":14.76694659,"ECCENTRICITY":0.0001827,"INCLINATION":97.9092,"RA_OF_ASC_NODE":116.9695,"ARG_OF_PERICENTER":115.2653,"MEAN_ANOMALY":244.8747,"EPHEMERIS_TYPE":0,"CLASSIFICATION_TYPE":"U","NORAD_CAT_ID":62931,"ELEMENT_SET_NO":999,"REV_AT_EPOCH":5727,"BSTAR":0.00029822,"MEAN_MOTION_DOT":2.037e-5,"MEAN_MOTION_DDOT":0},{"OBJECT_NAME":"KINEIS-2A","OBJECT_ID":"2025-028E","EPOCH":"2026-03-04T02:44:09.269952","MEAN_MOTION":14.7208323,"ECCENTRICITY":0.0003326,"INCLINATION":98.0697,"RA_OF_ASC_NODE":118.6574,"ARG_OF_PERICENTER":212.8928,"MEAN_ANOMALY":147.2072,"EPHEMERIS_TYPE":0,"CLASSIFICATION_TYPE":"U","NORAD_CAT_ID":62932,"ELEMENT_SET_NO":999,"REV_AT_EPOCH":5714,"BSTAR":0.00026799,"MEAN_MOTION_DOT":1.635e-5,"MEAN_MOTION_DDOT":0},{"OBJECT_NAME":"KINEIS-2B","OBJECT_ID":"2025-028G","EPOCH":"2026-03-04T03:19:21.278208","MEAN_MOTION":14.73096261,"ECCENTRICITY":0.0004819,"INCLINATION":97.9803,"RA_OF_ASC_NODE":117.8639,"ARG_OF_PERICENTER":121.5955,"MEAN_ANOMALY":238.5724,"EPHEMERIS_TYPE":0,"CLASSIFICATION_TYPE":"U","NORAD_CAT_ID":62934,"ELEMENT_SET_NO":999,"REV_AT_EPOCH":5719,"BSTAR":0.00029356,"MEAN_MOTION_DOT":1.84e-5,"MEAN_MOTION_DDOT":0},{"OBJECT_NAME":"KINEIS-4E","OBJECT_ID":"2025-056A","EPOCH":"2026-03-04T04:21:25.196832","MEAN_MOTION":14.72333733,"ECCENTRICITY":6.0e-5,"INCLINATION":97.9934,"RA_OF_ASC_NODE":189.5803,"ARG_OF_PERICENTER":192.8034,"MEAN_ANOMALY":167.3159,"EPHEMERIS_TYPE":0,"CLASSIFICATION_TYPE":"U","NORAD_CAT_ID":63300,"ELEMENT_SET_NO":999,"REV_AT_EPOCH":5167,"BSTAR":0.00057454,"MEAN_MOTION_DOT":3.586e-5,"MEAN_MOTION_DDOT":0},{"OBJECT_NAME":"KINEIS-4C","OBJECT_ID":"2025-056B","EPOCH":"2026-03-04T04:39:19.391616","MEAN_MOTION":14.72375204,"ECCENTRICITY":7.06e-5,"INCLINATION":97.9993,"RA_OF_ASC_NODE":189.756,"ARG_OF_PERICENTER":47.5026,"MEAN_ANOMALY":312.6241,"EPHEMERIS_TYPE":0,"CLASSIFICATION_TYPE":"U","NORAD_CAT_ID":63301,"ELEMENT_SET_NO":999,"REV_AT_EPOCH":5168,"BSTAR":0.00060887,"MEAN_MOTION_DOT":3.807e-5,"MEAN_MOTION_DDOT":0},{"OBJECT_NAME":"KINEIS-4D","OBJECT_ID":"2025-056C","EPOCH":"2026-03-04T04:46:33.668256","MEAN_MOTION":14.72345957,"ECCENTRICITY":5.17e-5,"INCLINATION":97.9975,"RA_OF_ASC_NODE":189.7394,"ARG_OF_PERICENTER":326.5391,"MEAN_ANOMALY":33.5784,"EPHEMERIS_TYPE":0,"CLASSIFICATION_TYPE":"U","NORAD_CAT_ID":63302,"ELEMENT_SET_NO":999,"REV_AT_EPOCH":5168,"BSTAR":0.00060644,"MEAN_MOTION_DOT":3.789e-5,"MEAN_MOTION_DDOT":0},{"OBJECT_NAME":"KINEIS-4A","OBJECT_ID":"2025-056D","EPOCH":"2026-03-03T14:53:29.947200","MEAN_MOTION":14.722789,"ECCENTRICITY":0.00016105,"INCLINATION":97.9941,"RA_OF_ASC_NODE":189.0973,"ARG_OF_PERICENTER":271.1978,"MEAN_ANOMALY":88.9045,"EPHEMERIS_TYPE":0,"CLASSIFICATION_TYPE":"U","NORAD_CAT_ID":63303,"ELEMENT_SET_NO":999,"REV_AT_EPOCH":5159,"BSTAR":-0.00014474138,"MEAN_MOTION_DOT":-9.63e-6,"MEAN_MOTION_DDOT":0},{"OBJECT_NAME":"KINEIS-4B","OBJECT_ID":"2025-056E","EPOCH":"2026-03-03T19:22:42.351168","MEAN_MOTION":14.72295278,"ECCENTRICITY":0.00020283,"INCLINATION":97.9947,"RA_OF_ASC_NODE":189.3269,"ARG_OF_PERICENTER":211.1315,"MEAN_ANOMALY":148.9773,"EPHEMERIS_TYPE":0,"CLASSIFICATION_TYPE":"U","NORAD_CAT_ID":63304,"ELEMENT_SET_NO":999,"REV_AT_EPOCH":5161,"BSTAR":0.00023900172,"MEAN_MOTION_DOT":1.461e-5,"MEAN_MOTION_DDOT":0}]
